NORAD_CAT_ID,OBJECT_NAME,OBJECT_TYPE,EPOCH,MEAN_MOTION,ECCENTRICITY,INCLINATION,RA_OF_ASC_NODE,ARG_OF_PERICENTER,MEAN_ANOMALY,BSTAR,MEAN_MOTION_DOT,MEAN_MOTION_DDOT,TLE_LINE0,TLE_LINE1,TLE_LINE2,SEMIMAJOR_AXIS,PERIOD,APOGEE,PERIGEE,DECAYED
55421.0,STARLINK-5598,PAYLOAD,2023-05-03 22:00:00,15.48499412,0.0003296,70.0003,191.1967,270.2877,309.9262,-0.01817,-0.00882267,0.0,0 STARLINK-5598,1 55421U 23014AG  23123.91667824 -.00882267  00000-0 -18170-1 0  9994,2 55421  70.0003 191.1967 0003296 270.2877 309.9262 15.48499412 15594,6799.252,92.993,423.358,418.876,0.0
55421.0,STARLINK-5598,PAYLOAD,2023-05-04 14:00:01,15.4719628,0.0003448,70.0001,189.3834,272.8969,61.1376,-0.018678,-0.00867946,0.0,0 STARLINK-5598,1 55421U 23014AG  23124.58335648 -.00867946  00000-0 -18678-1 0  9994,2 55421  70.0001 189.3834 0003448 272.8969  61.1376 15.47196280 15693,6803.069,93.072,427.28,422.589,0.0
55421.0,STARLINK-5598,PAYLOAD,2023-05-04 22:00:01,15.46529852,0.0003373,69.9999,188.4779,270.045,119.7079,-0.018956,-0.00861323,0.0,0 STARLINK-5598,1 55421U 23014AG  23124.91668981 -.00861323  00000-0 -18956-1 0  9992,2 55421  69.9999 188.4779 0003373 270.0450 119.7079 15.46529852  1303,6805.024,93.112,429.184,424.593,0.0
55421.0,STARLINK-5598,PAYLOAD,2023-05-05 06:00:00,15.45944,0.0003351,70.0,187.5735,269.126,175.4652,-0.021821,-0.00975097,0.0,0 STARLINK-5598,1 55421U 23014AG  23125.25001157 -.00975097  00000-0 -21821-1 0  9995,2 55421  70.0000 187.5735 0003351 269.1260 175.4652 15.45944000 15806,6806.743,93.147,430.889,426.327,0.0
55421.0,STARLINK-5598,PAYLOAD,2023-05-05 22:00:00,15.44570833,0.000312,69.9995,185.767,268.5428,283.5729,-0.020068,-0.00853135,0.0,0 STARLINK-5598,1 55421U 23014AG  23125.91667824 -.00853135  00000-0 -20068-1 0  9997,2 55421  69.9995 185.7670 0003120 268.5428 283.5729 15.44570833 15902,6810.776,93.23,434.766,430.516,0.0
55421.0,STARLINK-5598,PAYLOAD,2023-05-06 16:00:00,15.4315139,0.0003259,69.999,183.7393,275.7992,123.5006,-0.022977,-0.00936714,0.0,0 STARLINK-5598,1 55421U 23014AG  23126.66667824 -.00936714  00000-0 -22977-1 0  9996,2 55421  69.9990 183.7393 0003259 275.7992 123.5006 15.43151390  1308,6814.952,93.316,439.038,434.596,0.0
55421.0,STARLINK-5598,PAYLOAD,2023-05-07 06:00:00,15.4202243,0.0003385,69.9991,182.1655,269.9786,127.7398,-0.024668,-0.00965553,0.0,0 STARLINK-5598,1 55421U 23014AG  23127.25001157 -.00965553  00000-0 -24668-1 0  9995,2 55421  69.9991 182.1655 0003385 269.9786 127.7398 15.42022430 16115,6818.278,93.384,442.451,437.835,0.0
55421.0,STARLINK-5598,PAYLOAD,2023-05-07 14:00:01,15.41332251,0.0003238,69.9991,181.2679,277.6647,169.5081,-0.023193,-0.00893112,0.0,0 STARLINK-5598,1 55421U 23014AG  23127.58334491 -.00893112  00000-0 -23193-1 0  9994,2 55421  69.9991 181.2679 0003238 277.6647 169.5081 15.41332251  1302,6820.313,93.426,444.387,439.97,0.0
55421.0,STARLINK-5598,PAYLOAD,2023-05-07 22:00:00,15.40653435,0.0003166,69.9987,180.3696,271.2616,224.5884,-0.022589,-0.00853558,0.0,0 STARLINK-5598,1 55421U 23014AG  23127.91667824 -.00853558  00000-0 -22589-1 0  9998,2 55421  69.9987 180.3696 0003166 271.2616 224.5884 15.40653435 16210,6822.317,93.467,446.342,442.022,0.0
55421.0,STARLINK-5598,PAYLOAD,2023-05-08 14:00:01,15.39375627,0.0003159,69.9987,178.5775,274.6831,316.147,-0.024802,-0.00894908,0.0,0 STARLINK-5598,1 55421U 23014AG  23128.58334491 -.00894908  00000-0 -24802-1 0  9997,2 55421  69.9987 178.5775 0003159 274.6831 316.1470 15.39375627 16317,6826.091,93.544,450.113,445.8,0.0
55421.0,STARLINK-5598,PAYLOAD,2023-05-08 22:00:00,15.38699058,0.0003269,69.9986,177.6827,268.5145,8.6438,-0.024197,-0.00856968,0.0,0 STARLINK-5598,1 55421U 23014AG  23128.91667824 -.00856968  00000-0 -24197-1 0  9994,2 55421  69.9986 177.6827 0003269 268.5145   8.6438 15.38699058  1302,6828.092,93.586,452.189,447.725,0.0
55421.0,STARLINK-5598,PAYLOAD,2023-05-09 14:00:01,15.3742103,0.0003333,69.9987,175.8958,275.3424,92.0989,-0.026551,-0.00898399,0.0,0 STARLINK-5598,1 55421U 23014AG  23129.58334491 -.00898399  00000-0 -26551-1 0  9999,2 55421  69.9987 175.8958 0003333 275.3424  92.0989 15.37421030  1306,6831.876,93.663,456.018,451.464,0.0
55421.0,STARLINK-5598,PAYLOAD,2023-05-10 14:00:01,15.35464853,0.0003159,69.9987,173.2221,276.6023,220.4126,-0.028278,-0.00898203,0.0,0 STARLINK-5598,1 55421U 23014AG  23130.58334491 -.00898203  00000-0 -28278-1 0  9993,2 55421  69.9987 173.2221 0003159 276.6023 220.4126 15.35464853  1304,6837.677,93.783,461.702,457.382,0.0
55421.0,STARLINK-5598,PAYLOAD,2023-05-10 22:00:00,15.34781675,0.0003142,69.9988,172.3327,269.9131,268.7376,-0.027177,-0.00848548,0.0,0 STARLINK-5598,1 55421U 23014AG  23130.91667824 -.00848548  00000-0 -27177-1 0  9993,2 55421  69.9988 172.3327 0003142 269.9131 268.7376 15.34781675  1304,6839.706,93.824,463.72,459.422,0.0
55421.0,STARLINK-5598,PAYLOAD,2023-05-11 06:00:00,15.34180882,0.0003251,69.999,171.4444,269.7658,309.7185,-0.031114,-0.00944369,0.0,0 STARLINK-5598,1 55421U 23014AG  23131.25001157 -.00944369  00000-0 -31114-1 0  9996,2 55421  69.9990 171.4444 0003251 269.7658 309.7185 15.34180882 16729,6841.492,93.861,465.581,461.132,0.0
55421.0,STARLINK-5598,PAYLOAD,2023-05-11 14:00:01,15.33515862,0.0003265,69.9987,170.5567,274.1095,345.4349,-0.030539,-0.00910491,0.0,0 STARLINK-5598,1 55421U 23014AG  23131.58334491 -.00910491  00000-0 -30539-1 0  9991,2 55421  69.9987 170.5567 0003265 274.1095 345.4349 15.33515862  1307,6843.469,93.902,467.569,463.1,0.0
55421.0,STARLINK-5598,PAYLOAD,2023-05-11 22:00:00,15.32823239,0.0003355,69.9991,169.67,269.0321,29.8056,-0.028853,-0.00846753,0.0,0 STARLINK-5598,1 55421U 23014AG  23131.91667824 -.00846753  00000-0 -28853-1 0  9992,2 55421  69.9991 169.6700 0003355 269.0321  29.8056 15.32823239  1302,6845.531,93.944,469.692,465.099,0.0
55421.0,STARLINK-5598,PAYLOAD,2023-05-12 06:00:00,15.3222298,0.0003492,69.9993,168.7842,270.3391,66.9843,-0.033046,-0.00942925,0.0,0 STARLINK-5598,1 55421U 23014AG  23132.25001157 -.00942925  00000-0 -33046-1 0  9999,2 55421  69.9993 168.7842 0003492 270.3391  66.9843 15.32222980 16875,6847.318,93.981,471.575,466.792,0.0
55421.0,STARLINK-5598,PAYLOAD,2023-05-12 12:00:00,15.31701638,0.0003361,69.9992,168.1203,273.1931,2.4954,-0.031104,-0.00878502,0.0,0 STARLINK-5598,1 55421U 23014AG  23132.50001157 -.00878502  00000-0 -31104-1 0  9999,2 55421  69.9992 168.1203 0003361 273.1931   2.4954 15.31701638  1306,6848.872,94.013,473.039,468.435,0.0
55421.0,STARLINK-5598,PAYLOAD,2023-05-12 22:00:00,15.30864732,0.0003436,69.9992,167.0149,268.0956,143.8857,-0.030452,-0.00840926,0.0,0 STARLINK-5598,1 55421U 23014AG  23132.91667824 -.00840926  00000-0 -30452-1 0  9997,2 55421  69.9992 167.0149 0003436 268.0956 143.8857 15.30864732 16982,6851.368,94.064,475.587,470.879,0.0
55421.0,STARLINK-5598,PAYLOAD,2023-05-13 06:00:00,15.3026689,0.0003457,69.9996,166.1318,270.7787,177.3433,-0.035277,-0.00958621,0.0,0 STARLINK-5598,1 55421U 23014AG  23133.25001157 -.00958621  00000-0 -35277-1 0  9998,2 55421  69.9996 166.1318 0003457 270.7787 177.3433 15.30266890 17039,6853.152,94.101,477.386,472.648,0.0
55421.0,STARLINK-5598,PAYLOAD,2023-05-13 14:00:01,15.29600416,0.0003417,69.9992,165.2491,276.5837,206.9036,-0.034568,-0.00911595,0.0,0 STARLINK-5598,1 55421U 23014AG  23133.58334491 -.00911595  00000-0 -34568-1 0  9995,2 55421  69.9992 165.2491 0003417 276.5837 206.9036 15.29600416  1308,6855.143,94.142,479.35,474.666,0.0
55421.0,STARLINK-5598,PAYLOAD,2023-05-13 22:00:00,15.28913802,0.0003353,69.9992,164.3677,269.9725,248.1109,-0.032716,-0.00849716,0.0,0 STARLINK-5598,1 55421U 23014AG  23133.91667824 -.00849716  00000-0 -32716-1 0  9999,2 55421  69.9992 164.3677 0003353 269.9725 248.1109 15.28913802 17137,6857.195,94.185,481.359,476.761,0.0
55421.0,STARLINK-5598,PAYLOAD,2023-05-14 06:00:00,15.28304223,0.0003408,69.9996,163.4869,270.772,281.1092,-0.037091,-0.00949384,0.0,0 STARLINK-5598,1 55421U 23014AG  23134.25001157 -.00949384  00000-0 -37091-1 0  9991,2 55421  69.9996 163.4869 0003408 270.7720 281.1092 15.28304223 17184,6859.018,94.222,483.221,478.546,0.0
55421.0,STARLINK-5598,PAYLOAD,2023-05-14 14:00:01,15.27645804,0.0003429,69.9991,162.6071,273.6461,311.2516,-0.036884,-0.00915564,0.0,0 STARLINK-5598,1 55421U 23014AG  23134.58334491 -.00915564  00000-0 -36884-1 0  9999,2 55421  69.9991 162.6071 0003429 273.6461 311.2516 15.27645804  1307,6860.989,94.263,485.207,480.501,0.0
55421.0,STARLINK-5598,PAYLOAD,2023-05-14 22:00:00,15.26961288,0.0003423,69.9991,161.7281,266.7908,350.3548,-0.035021,-0.00856273,0.0,0 STARLINK-5598,1 55421U 23014AG  23134.91667824 -.00856273  00000-0 -35021-1 0  9998,2 55421  69.9991 161.7281 0003423 266.7908 350.3548 15.26961288 17282,6863.039,94.305,487.254,482.555,0.0
55421.0,STARLINK-5598,PAYLOAD,2023-05-15 06:00:00,15.26344067,0.0003499,69.9993,160.85,268.9664,19.632,-0.039117,-0.00943621,0.0,0 STARLINK-5598,1 55421U 23014AG  23135.25001157 -.00943621  00000-0 -39117-1 0  9991,2 55421  69.9993 160.8500 0003499 268.9664  19.6320 15.26344067 17333,6864.889,94.343,489.156,484.352,0.0
55421.0,STARLINK-5598,PAYLOAD,2023-05-15 14:00:01,15.2569844,0.0003536,69.9988,159.9727,272.8792,46.3847,-0.03977,-0.00941026,0.0,0 STARLINK-5598,1 55421U 23014AG  23135.58334491 -.00941026  00000-0 -39770-1 0  9999,2 55421  69.9988 159.9727 0003536 272.8792  46.3847 15.25698440  1302,6866.826,94.383,491.119,486.263,0.0
55421.0,STARLINK-5598,PAYLOAD,2023-05-15 22:00:00,15.25004394,0.0003514,69.9988,159.0965,266.7929,82.3759,-0.037203,-0.00857263,0.0,0 STARLINK-5598,1 55421U 23014AG  23135.91667824 -.00857263  00000-0 -37203-1 0  9993,2 55421  69.9988 159.0965 0003514 266.7929  82.3759 15.25004394  1308,6868.909,94.426,493.188,488.361,0.0
55421.0,STARLINK-5598,PAYLOAD,2023-05-16 06:00:00,15.243861,0.0003512,69.9989,158.2209,269.8195,108.4556,-0.041443,-0.00942538,0.0,0 STARLINK-5598,1 55421U 23014AG  23136.25001157 -.00942538  00000-0 -41443-1 0  9993,2 55421  69.9989 158.2209 0003512 269.8195 108.4556 15.24386100 17497,6870.766,94.464,495.044,490.218,0.0
